{
    "links": {
        "self": "http://www.neowsapp.com/rest/v1/neo/3759277?api_key=iIulBulltgU6a56xZRHN4H3l9WmuAYTsLGpBGhQ2"
    },
    "id": "3759277",
    "neo_reference_id": "3759277",
    "name": "(2016 RU19)",
    "designation": "2016 RU19",
    "nasa_jpl_url": "http://ssd.jpl.nasa.gov/sbdb.cgi?sstr=3759277",
    "absolute_magnitude_h": 23.4,
    "estimated_diameter": {
        "kilometers": {
            "estimated_diameter_min": 0.0555334912,
            "estimated_diameter_max": 0.1241766613
        },
        "meters": {
            "estimated_diameter_min": 55.5334911581,
            "estimated_diameter_max": 124.1766612574
        },
        "miles": {
            "estimated_diameter_min": 0.0345069009,
            "estimated_diameter_max": 0.0771597762
        },
        "feet": {
            "estimated_diameter_min": 182.1964991311,
            "estimated_diameter_max": 407.4037573197
        }
    },
    "is_potentially_hazardous_asteroid": false,
    "close_approach_data": [
        {
            "close_approach_date": "1965-07-14",
            "close_approach_date_full": "1965-Jul-14 02:42",
            "epoch_date_close_approach": -140995080000,
            "relative_velocity": {
                "kilometers_per_second": "17.2781890135",
                "kilometers_per_hour": "62201.4804484207",
                "miles_per_hour": "38649.5810041868"
            },
            "miss_distance": {
                "astronomical": "0.0711886729",
                "lunar": "27.6923937581",
                "kilometers": "10649673.833966723",
                "miles": "6617400.4674898574"
            },
            "orbiting_body": "Venus"
        },
        {
            "close_approach_date": "1965-09-20",
            "close_approach_date_full": "1965-Sep-20 12:51",
            "epoch_date_close_approach": -135083340000,
            "relative_velocity": {
                "kilometers_per_second": "36.3329740993",
                "kilometers_per_hour": "130798.7067573583",
                "miles_per_hour": "81273.2297626486"
            },
            "miss_distance": {
                "astronomical": "0.4949616722",
                "lunar": "192.5400904858",
                "kilometers": "74045211.892758214",
                "miles": "46009561.1784587932"
            },
            "orbiting_body": "Earth"
        },
        {
            "close_approach_date": "2016-08-22",
            "close_approach_date_full": "2016-Aug-22 13:26",
            "epoch_date_close_approach": 1471872360000,
            "relative_velocity": {
                "kilometers_per_second": "18.8159688517",
                "kilometers_per_hour": "67737.4878661812",
                "miles_per_hour": "42089.4407244058"
            },
            "miss_distance": {
                "astronomical": "0.1124246138",
                "lunar": "43.7331747682",
                "kilometers": "16818482.760052606",
                "miles": "10450520.5900177228"
            },
            "orbiting_body": "Earth"
        }
    ],
    "orbital_data": {
        "orbit_id": "2",
        "orbit_determination_date": "2017-04-06 08:24:03",
        "first_observation_date": "2016-09-06",
        "last_observation_date": "2016-09-10",
        "data_arc_in_days": 4,
        "observations_used": 14,
        "orbit_uncertainty": "9",
        "minimum_orbit_intersection": ".0445335",
        "jupiter_tisserand_invariant": "4.061",
        "epoch_osculation": "2457638.5",
        "eccentricity": ".6708688231760543",
        "semi_major_axis": "1.605920207037568",
        "inclination": "5.076666006996263",
        "ascending_node_longitude": "104.5775101720565",
        "orbital_period": "743.3346388224138",
        "perihelion_distance": ".5285584076276291",
        "perihelion_argument": "129.7291657584679",
        "aphelion_distance": "2.683282006447506",
        "perihelion_time": "2457573.000562454836",
        "mean_anomaly": "31.72164498295681",
        "mean_motion": ".4843040821699225",
        "equinox": "J2000",
        "orbit_class": {
            "orbit_class_type": "APO",
            "orbit_class_description": "Near-Earth asteroid orbits which cross the Earth’s orbit similar to that of 1862 Apollo",
            "orbit_class_range": "a (semi-major axis) > 1.0 AU; q (perihelion) < 1.017 AU"
        }
    },
    "is_sentry_object": false
}